STARLINK-5059           
1 53912U 22119AC  24108.49812632  .00000360  00000+0  40719-4 0  9998
2 53912  53.2163 176.6411 0001374  93.6772 266.4378 15.08830335 87486
STARLINK-5053           
1 53913U 22119AD  24108.46504235 -.00003055  00000+0 -17402-3 0  9991
2 53913  53.2163 177.1328 0001403  95.1683 264.9469 15.08827620 87477
STARLINK-5040           
1 53914U 22119AE  24108.46135893 -.00004189  00000+0 -24535-3 0  9996
2 53914  53.2165 177.1131 0001347  79.4725 280.6419 15.08823639 87477
STARLINK-5017           
1 53915U 22119AF  24108.40985074  .00001164  00000+0  91220-4 0  9999
2 53915  53.2158 177.4936 0001456  91.9862 268.1297 15.08842380 87466
STARLINK-5051           
1 53916U 22119AG  24108.42636392 -.00002572  00000+0 -14364-3 0  9997
2 53916  53.2156 156.9742 0001605 106.1366 253.9802 15.08824873 87760
STARLINK-5036           
1 53917U 22119AH  24108.46872182  .00001837  00000+0  13350-3 0  9996
2 53917  53.2171 177.1537 0001758 102.0226 258.0964 15.08841724 87471
STARLINK-5012           
1 53918U 22119AJ  24108.45765566  .00001698  00000+0  12471-3 0  9991
2 53918  53.2169 177.0897 0001910  72.7470 287.3731 15.08852721 87477
STARLINK-5023           
1 53919U 22119AK  24108.45397098  .00014908  00000+0  95234-3 0  9999
2 53919  53.2154 177.0654 0001368  87.8811 272.2337 15.08857045 87475
STARLINK-5025           
1 53920U 22119AL  24108.47336680  .00000006  00000+0  18472-4 0  9997
2 53920  53.2150 177.1761 0001572  78.4585 281.6584 15.08837629 87478
STARLINK-5002           
1 53922U 22119AN  24108.50915800  .00009163  00000+0  59285-3 0  9999
2 53922  53.2157 176.7008 0001667  75.5140 284.6037 15.08854362 87486
STARLINK-5004           
1 53923U 22119AP  24108.45029479  .00000434  00000+0  45335-4 0  9996
2 53923  53.2167 177.0394 0001485  94.6466 265.4696 15.08844497 87476
STARLINK-5001           
1 53924U 22119AQ  24108.39003819  .00004983  00000+0  33082-3 0  9998
2 53924  53.2160 172.3878 0001510  96.5613 263.5551 15.08856782 87535
STARLINK-5011           
1 53925U 22119AR  24108.49443519  .00001714  00000+0  12580-3 0  9994
2 53925  53.2145 176.6165 0001162  92.1424 267.9701 15.08830178 87480
STARLINK-5014           
1 53926U 22119AS  24108.44522593  .00007327  00000+0  47774-3 0  9999
2 53926  53.2156 172.0242 0001614  92.8687 267.2490 15.08858659 87559
STARLINK-5008           
1 53927U 22119AT  24108.46365137  .00000417  00000+0  44293-4 0  9998
2 53927  53.2180 172.1497 0001563  94.6271 265.4900 15.08844287 87549
STARLINK-5009           
1 53928U 22119AU  24108.45489604  .00004671  00000+0  31127-3 0  9991
2 53928  53.2165 167.0914 0001554  93.6178 266.4992 15.08854468 87617
STARLINK-5018           
1 53929U 22119AV  24108.44661219 -.00001618  00000+0 -87719-4 0  9994
2 53929  53.2148 177.0173 0001379  79.7596 280.3551 15.07198758 87473
STARLINK-5010           
1 53930U 22119AW  24108.44015382  .00005346  00000+0  35352-3 0  9995
2 53930  53.2166 167.0005 0001805 105.2147 254.9045 15.08862906 87614
STARLINK-5015           
1 53931U 22119AX  24108.36517966 -.00000546  00000+0 -16212-4 0  9996
2 53931  53.2168 162.2626 0001653  95.2768 264.8413 15.08833678 87670
STARLINK-4772           
1 53932U 22119AY  24108.47195549 -.00001241  00000+0 -59931-4 0  9996
2 53932  53.2161 162.2077 0001416  84.8677 275.2477 15.08832347 87694
STARLINK-4782           
1 53933U 22119AZ  24108.45120685  .00001847  00000+0  13403-3 0  9997
2 53933  53.2153 167.0660 0001470  94.7070 265.4090 15.08854993 87619
STARLINK-4775           
1 53934U 22119BA  24108.46827181 -.00003404  00000+0 -19598-3 0  9998
2 53934  53.2159 162.1834 0001610  76.3831 283.7341 15.08824141 87706
STARLINK-5000           
1 53935U 22119BB  24108.38451635  .00000075  00000+0  22785-4 0  9999
2 53935  53.2165 152.3898 0001666  79.1037 281.0143 15.08860480 87814
STARLINK-4791           
1 53936U 22119BC  24108.37255334 -.00000537  00000+0 -15665-4 0  9991
2 53936  53.2158 162.2969 0001420  95.4104 264.7050 15.08831719 87683
STARLINK-4765           
1 53937U 22119BD  24108.45583898 -.00000189  00000+0  62014-5 0  9993
2 53937  53.2157 157.1247 0001402  85.2457 274.8695 15.08833351 87752
STARLINK-4633           
1 53964U 22125A   24108.23413454  .00001900  00000+0  13740-3 0  9997
2 53964  53.2168  88.3331 0001378 108.0523 252.0619 15.08848561 84933
STARLINK-4578           
1 53965U 22125B   24108.36388066  .00004043  00000+0  27187-3 0  9993
2 53965  53.2169  87.7217 0001488 102.1171 257.9988 15.08852999 84952
STARLINK-4635           
1 53966U 22125C   24108.35923583  .00003749  00000+0  25342-3 0  9995
2 53966  53.2169  87.6947 0001602  94.8171 265.3004 15.08856959 84959
STARLINK-4634           
1 53967U 22125D   24108.35555601  .00001642  00000+0  12122-3 0  9990
2 53967  53.2163  87.6702 0001443 100.0791 260.0364 15.08844454 84952
STARLINK-4629           
1 53968U 22125E   24108.34449550  .00003975  00000+0  26757-3 0  9995
2 53968  53.2167  87.6032 0001598 100.1525 259.9647 15.08859123 84950
STARLINK-4468           
1 53969U 22125F   24108.35186552  .00003242  00000+0  22160-3 0  9998
2 53969  53.2181  87.6471 0001761 101.2521 258.8669 15.08860301 84956
STARLINK-4567           
1 53970U 22125G   24108.35417353  .00001180  00000+0  92231-4 0  9992
2 53970  53.2177  82.6792 0001579 103.2014 256.9154 15.08847302 85034
STARLINK-4639           
1 53971U 22125H   24108.34818149  .00006929  00000+0  45272-3 0  9998
2 53971  53.2163  87.6259 0001552  96.1637 263.9532 15.08862180 84954
STARLINK-5157           
1 53972U 22125J   24108.10477349 -.00001143  00000+0 -45810-5 0  9991
2 53972  53.2155  44.8654 0001087  93.9561 266.1582 15.69705910 85533
STARLINK-5156           
1 53973U 22125K   24108.34081392  .00000198  00000+0  30512-4 0  9996
2 53973  53.2182  87.5810 0001803 100.2823 259.8373 15.08848870 84959
STARLINK-5159           
1 53974U 22125L   24108.30949476 -.00000260  00000+0  17652-5 0  9991
2 53974  53.2174  67.4465 0001650  95.6553 264.4627 15.08858018 85232
STARLINK-5137           
1 53975U 22125M   24108.30996204  .00001026  00000+0  82551-4 0  9992
2 53975  53.2178  82.4171 0001611  92.7032 267.4145 15.08847558 85027
STARLINK-5134           
1 53976U 22125N   24108.29115989  .00000363  00000+0  40910-4 0  9990
2 53976  53.2191  68.0436 0001650  93.3277 266.7903 15.08847993 85227
STARLINK-5094           
1 53977U 22125P   24108.29530636  .00000488  00000+0  48754-4 0  9993
2 53977  53.2173  83.0228 0001619  94.5866 265.5312 15.08843160 85016
STARLINK-5148           
1 53978U 22125Q   24108.34311353  .00003500  00000+0  23775-3 0  9996
2 53978  53.2164  82.6047 0001545  95.5751 264.5417 15.08859591 85024
STARLINK-5123           
1 53979U 22125R   24108.35048605  .00000710  00000+0  62710-4 0  9998
2 53979  53.2177  82.6535 0001451 103.0682 257.0472 15.08849813 85029
STARLINK-5133           
1 53980U 22125S   24108.32468826  .00004184  00000+0  28063-3 0  9999
2 53980  53.2163  82.4952 0001520 101.6304 258.4859 15.08861449 85022
STARLINK-5149           
1 53981U 22125T   24108.32423779  .00003442  00000+0  23416-3 0  9991
2 53981  53.2176  67.5514 0001224  96.8569 263.2562 15.08854914 85231
STARLINK-5120           
1 53982U 22125U   24108.15407743 -.00000282  00000+0  36077-6 0  9996
2 53982  53.2186  78.5793 0001718 121.1329 238.9832 15.08846635 85058
STARLINK-5103           
1 53983U 22125V   24108.19911394  .00005361  00000+0  35436-3 0  9990
2 53983  53.2160  68.1716 0001108  94.1826 265.9293 15.08868475 85287
STARLINK-5142           
1 53984U 22125W   24108.29761166  .00005570  00000+0  36763-3 0  9998
2 53984  53.2167  78.0529 0001586  85.4806 274.6368 15.08851612 85081
STARLINK-5147           
1 53985U 22125X   24108.30496167  .00009211  00000+0  59547-3 0  9998
2 53985  53.2159  78.1001 0001390 105.7061 254.4085 15.08878172 85083
STARLINK-5119           
1 53986U 22125Y   24108.18438330  .00001964  00000+0  14143-3 0  9993
2 53986  53.2175  68.0849 0001796 114.5601 245.5578 15.08854246 85206
STARLINK-5112           
1 53987U 22125Z   24108.30129894  .00001746  00000+0  12776-3 0  9998
2 53987  53.2178  78.0755 0001459  90.6151 269.5008 15.08845078 85080
STARLINK-5113           
1 53988U 22125AA  24108.29391749  .00003472  00000+0  23603-3 0  9996
2 53988  53.2179  78.0313 0001364  91.2352 268.8796 15.08856118 85079
STARLINK-5115           
1 53989U 22125AB  24108.29023831  .00001765  00000+0  12890-3 0  9990
2 53989  53.2179  78.0070 0001449  94.7071 265.4087 15.08853884 85084
STARLINK-5075           
1 53990U 22125AC  24108.35375361  .00000817  00000+0  69406-4 0  9990
2 53990  53.2186  77.6878 0001609  90.4498 269.6678 15.08847229 85087
STARLINK-5118           
1 53991U 22125AD  24108.21385343  .00007175  00000+0  46803-3 0  9996
2 53991  53.2185  68.2067 0001534  81.1479 278.9687 15.08870840 85208
STARLINK-5108           
1 53992U 22125AE  24108.15038302  .00001128  00000+0  88939-4 0  9999
2 53992  53.2170  78.5503 0001177  99.7669 260.3456 15.08854419 85057
STARLINK-5121           
1 53993U 22125AF  24108.32562944 -.00001262  00000+0 -61241-4 0  9991
2 53993  53.2176  72.5286 0001269  85.5202 274.5935 15.08841078 85151
STARLINK-5125           
1 53994U 22125AG  24108.33805379  .00002303  00000+0  16268-3 0  9998
2 53994  53.2160  77.5953 0001266 101.6229 258.4905 15.08848296 85097
STARLINK-5097           
1 53995U 22125AH  24108.34542366  .00000989  00000+0  80215-4 0  9996
2 53995  53.2183  77.6478 0001380  96.1961 263.9188 15.08847526 85082
STARLINK-5131           
1 53996U 22125AJ  24108.33436768  .00002902  00000+0  20025-3 0  9993
2 53996  53.2171  77.5720 0001432 101.2468 258.8686 15.08852951 85092
STARLINK-5130           
1 53997U 22125AK  24108.30222287  .00001730  00000+0  12677-3 0  9992
2 53997  53.2172  68.1033 0001601 104.7775 255.3394 15.08843922 85225
